NORAD_CAT_ID,OBJECT_NAME,OBJECT_TYPE,EPOCH,MEAN_MOTION,ECCENTRICITY,INCLINATION,RA_OF_ASC_NODE,ARG_OF_PERICENTER,MEAN_ANOMALY,BSTAR,MEAN_MOTION_DOT,MEAN_MOTION_DDOT,TLE_LINE0,TLE_LINE1,TLE_LINE2,SEMIMAJOR_AXIS,PERIOD,APOGEE,PERIGEE,DECAYED
53723.0,STARLINK-4705,PAYLOAD,2024-07-15 22:21:13,15.08838714,0.0001695,53.2189,75.1614,95.5544,264.5642,1.8188e-05,1e-08,0.0,0 STARLINK-4705,1 53723U 22107Z   24197.93141203  .00000001  00000-0  18188-4 0  9999,2 53723  53.2189  75.1614 0001695  95.5544 264.5642 15.08838714103713,6917.884,95.438,540.922,538.577,0.0
53723.0,STARLINK-4705,PAYLOAD,2024-07-16 20:36:37,15.08843133,0.0001568,53.218,70.9999,98.5934,261.5236,8.1676e-05,1.012e-05,0.0,0 STARLINK-4705,1 53723U 22107Z   24198.85877035  .00001012  00000-0  81676-4 0  9995,2 53723  53.2180  70.9999 0001568  98.5934 261.5236 15.08843133103254,6917.871,95.437,540.821,538.651,0.0
53723.0,STARLINK-4705,PAYLOAD,2024-07-16 22:12:00,15.0884654,0.0001597,53.2178,70.7023,101.4328,258.6843,6.8303e-05,7.99e-06,0.0,0 STARLINK-4705,1 53723U 22107Z   24198.92500856  .00000799  00000-0  68303-4 0  9990,2 53723  53.2178  70.7023 0001597 101.4328 258.6843 15.08846540103863,6917.86,95.437,540.83,538.621,0.0
53723.0,STARLINK-4705,PAYLOAD,2024-07-17 01:22:46,15.08847183,0.0001628,53.218,70.1062,105.2286,254.8886,0.00012612,1.72e-05,0.0,0 STARLINK-4705,1 53723U 22107Z   24199.05748774  .00001720  00000-0  12612-3 0  9994,2 53723  53.2180  70.1062 0001628 105.2286 254.8886 15.08847183103884,6917.858,95.437,540.85,538.597,0.0
53723.0,STARLINK-4705,PAYLOAD,2024-07-17 20:27:25,15.08835007,0.0001921,53.2169,66.5335,119.3355,240.7829,7.7168e-05,9.4e-06,0.0,0 STARLINK-4705,1 53723U 22107Z   24199.85237782  .00000940  00000-0  77168-4 0  9995,2 53723  53.2169  66.5335 0001921 119.3355 240.7829 15.08835007103403,6917.896,95.438,541.09,538.432,0.0
53723.0,STARLINK-4705,PAYLOAD,2024-07-17 22:02:48,15.08835501,0.0001382,53.2175,66.2376,88.6644,271.4507,7.7377e-05,9.44e-06,0.0,0 STARLINK-4705,1 53723U 22107Z   24199.91861767  .00000944  00000-0  77377-4 0  9994,2 53723  53.2175  66.2376 0001382  88.6644 271.4507 15.08835501104013,6917.894,95.438,540.715,538.803,0.0
53723.0,STARLINK-4705,PAYLOAD,2024-07-18 07:35:07,15.08835195,0.0001404,53.2178,64.4601,85.4395,274.6758,2.9705e-05,1.85e-06,0.0,0 STARLINK-4705,1 53723U 22107Z   24200.31606023  .00000185  00000-0  29705-4 0  9992,2 53723  53.2178  64.4601 0001404  85.4395 274.6758 15.08835195104078,6917.895,95.438,540.731,538.789,0.0
53723.0,STARLINK-4705,PAYLOAD,2024-07-18 21:53:35,15.08842589,0.0001479,53.2181,61.7845,102.2586,257.8572,7.8467e-05,9.61e-06,0.0,0 STARLINK-4705,1 53723U 22107Z   24200.91221868  .00000961  00000-0  78467-4 0  9999,2 53723  53.2181  61.7845 0001479 102.2586 257.8572 15.08842589104166,6917.872,95.437,540.761,538.714,0.0
53723.0,STARLINK-4705,PAYLOAD,2024-07-19 07:25:54,15.08846076,0.0001467,53.2185,60.0017,84.0909,276.025,9.5041e-05,1.225e-05,0.0,0 STARLINK-4705,1 53723U 22107Z   24201.30965629  .00001225  00000-0  95041-4 0  9994,2 53723  53.2185  60.0017 0001467  84.0909 276.0250 15.08846076104224,6917.862,95.437,540.742,538.712,0.0
53723.0,STARLINK-4705,PAYLOAD,2024-07-19 21:44:22,15.08840574,0.0001481,53.2182,57.3292,105.5044,254.6112,0.0001344,1.852e-05,0.0,0 STARLINK-4705,1 53723U 22107Z   24201.90582161  .00001852  00000-0  13440-3 0  9994,2 53723  53.2182  57.3292 0001481 105.5044 254.6112 15.08840574104316,6917.879,95.438,540.768,538.719,0.0
53723.0,STARLINK-4705,PAYLOAD,2024-07-19 23:19:45,15.0884964,0.000133,53.2172,57.0268,80.349,279.7653,0.00031805,4.779e-05,0.0,0 STARLINK-4705,1 53723U 22107Z   24201.97205878  .00004779  00000-0  31805-3 0  9994,2 53723  53.2172  57.0268 0001330  80.3490 279.7653 15.08849640103728,6917.851,95.437,540.636,538.796,0.0
53723.0,STARLINK-4705,PAYLOAD,2024-07-20 07:16:41,15.08837165,0.0001661,53.2182,55.5411,86.4616,273.6566,4.2227e-05,3.84e-06,0.0,0 STARLINK-4705,1 53723U 22107Z   24202.30326363  .00000384  00000-0  42227-4 0  9994,2 53723  53.2182  55.5411 0001661  86.4616 273.6566 15.08837165103776,6917.889,95.438,540.903,538.605,0.0
53723.0,STARLINK-4705,PAYLOAD,2024-07-20 21:35:09,15.08845893,0.0001504,53.2166,52.8626,84.3208,275.7955,0.00012215,1.657e-05,0.0,0 STARLINK-4705,1 53723U 22107Z   24202.89942003  .00001657  00000-0  12215-3 0  9990,2 53723  53.2166  52.8626 0001504  84.3208 275.7955 15.08845893104465,6917.862,95.437,540.768,538.687,0.0
53723.0,STARLINK-4705,PAYLOAD,2024-07-20 23:10:32,15.08847361,0.0001533,53.2164,52.5639,79.496,280.6205,0.00015835,2.234e-05,0.0,0 STARLINK-4705,1 53723U 22107Z   24202.96565937  .00002234  00000-0  15835-3 0  9998,2 53723  53.2164  52.5639 0001533  79.4960 280.6205 15.08847361103875,6917.858,95.437,540.783,538.662,0.0
53723.0,STARLINK-4705,PAYLOAD,2024-07-21 07:07:28,15.08842979,0.0001091,53.216,51.0796,87.7756,272.3361,8.3127e-05,1.036e-05,0.0,0 STARLINK-4705,1 53723U 22107Z   24203.29685947  .00001036  00000-0  83127-4 0  9998,2 53723  53.2160  51.0796 0001091  87.7756 272.3361 15.08842979104527,6917.871,95.437,540.491,538.982,0.0
53723.0,STARLINK-4705,PAYLOAD,2024-07-21 19:50:34,15.08840638,0.0001318,53.2164,48.6991,81.5944,278.5197,-3.4098e-05,-8.31e-06,0.0,0 STARLINK-4705,1 53723U 22107Z   24203.82678303 -.00000831  00000-0 -34098-4 0  9992,2 53723  53.2164  48.6991 0001318  81.5944 278.5197 15.08840638104001,6917.878,95.438,540.655,538.832,0.0
53723.0,STARLINK-4705,PAYLOAD,2024-07-21 21:25:57,15.08843438,0.0001356,53.2171,48.4027,81.2379,278.8767,1.9568e-05,2.4e-07,0.0,0 STARLINK-4705,1 53723U 22107Z   24203.89302194  .00000024  00000-0  19568-4 0  9998,2 53723  53.2171  48.4027 0001356  81.2379 278.8767 15.08843438104612,6917.87,95.437,540.673,538.797,0.0
53723.0,STARLINK-4705,PAYLOAD,2024-07-22 13:19:48,15.08847097,0.0001209,53.2175,45.4282,83.7922,276.3208,0.00024908,3.679e-05,0.0,0 STARLINK-4705,1 53723U 22107Z   24204.55541957  .00003679  00000-0  24908-3 0  9996,2 53723  53.2175  45.4282 0001209  83.7922 276.3208 15.08847097104713,6917.859,95.437,540.56,538.887,0.0
53723.0,STARLINK-4705,PAYLOAD,2024-07-23 06:49:02,15.08855479,0.0001294,53.2172,42.156,88.7691,271.3449,0.00020199,2.93e-05,0.0,0 STARLINK-4705,1 53723U 22107Z   24205.28405300  .00002930  00000-0  20199-3 0  9995,2 53723  53.2172  42.1560 0001294  88.7691 271.3449 15.08855479104822,6917.833,95.437,540.593,538.803,0.0
53723.0,STARLINK-4705,PAYLOAD,2024-07-24 13:01:23,15.08831231,0.0001476,53.2174,36.5082,84.3911,275.7249,-6.2556e-05,-1.283e-05,0.0,0 STARLINK-4705,1 53723U 22107Z   24206.54262803 -.00001283  00000-0 -62556-4 0  9990,2 53723  53.2174  36.5082 0001476  84.3911 275.7249 15.08831231104410,6917.907,95.438,540.793,538.751,0.0
53723.0,STARLINK-4705,PAYLOAD,2024-07-25 12:52:09,15.08840339,8.78e-05,53.2173,32.0514,47.8494,312.2572,9.2125e-05,1.179e-05,0.0,0 STARLINK-4705,1 53723U 22107Z   24207.53622541  .00001179  00000-0  92125-4 0  9996,2 53723  53.2173  32.0514 0000878  47.8494 312.2572 15.08840339104566,6917.879,95.438,540.352,539.137,0.0
53723.0,STARLINK-4705,PAYLOAD,2024-07-26 04:46:01,15.08837896,0.0001217,53.2167,29.0758,87.439,272.6742,6.9241e-05,8.14e-06,0.0,0 STARLINK-4705,1 53723U 22107Z   24208.19862714  .00000814  00000-0  69241-4 0  9995,2 53723  53.2167  29.0758 0001217  87.4390 272.6742 15.08837896105268,6917.887,95.438,540.594,538.91,0.0
53723.0,STARLINK-4705,PAYLOAD,2024-07-26 20:39:52,15.08845789,0.0001094,53.2136,26.0975,70.7074,289.4036,0.0001507,2.112e-05,0.0,0 STARLINK-4705,1 53723U 22107Z   24208.86102062  .00002112  00000-0  15070-3 0  9995,2 53723  53.2136  26.0975 0001094  70.7074 289.4036 15.08845789104765,6917.863,95.437,540.485,538.971,0.0
53723.0,STARLINK-4705,PAYLOAD,2024-07-26 22:15:15,15.08846697,0.0001092,53.215,25.801,72.4964,287.6148,0.00015715,2.215e-05,0.0,0 STARLINK-4705,1 53723U 22107Z   24208.92726012  .00002215  00000-0  15715-3 0  9999,2 53723  53.2150  25.8010 0001092  72.4964 287.6148 15.08846697105374,6917.86,95.437,540.48,538.969,0.0
53723.0,STARLINK-4705,PAYLOAD,2024-07-27 10:58:21,15.0883192,0.0001354,53.2129,23.4211,78.7718,281.3426,-8.5279e-06,-4.24e-06,0.0,0 STARLINK-4705,1 53723U 22107Z   24209.45719560 -.00000424  00000-0 -85279-5 0  9994,2 53723  53.2129  23.4211 0001354  78.7718 281.3426 15.08831920104859,6917.905,95.438,540.707,538.833,0.0
53723.0,STARLINK-4705,PAYLOAD,2024-07-27 12:33:45,15.08828226,0.0001224,53.2129,23.1245,76.1038,284.009,-6.6283e-05,-1.342e-05,0.0,0 STARLINK-4705,1 53723U 22107Z   24209.52343920 -.00001342  00000-0 -66283-4 0  9998,2 53723  53.2129  23.1245 0001224  76.1038 284.0090 15.08828226105466,6917.916,95.438,540.628,538.935,0.0
53723.0,STARLINK-4705,PAYLOAD,2024-07-28 04:27:36,15.08837172,0.0001276,53.2131,20.1495,78.9406,281.1729,1.9687e-05,2.5e-07,0.0,0 STARLINK-4705,1 53723U 22107Z   24210.18583343  .00000025  00000-0  19687-4 0  9998,2 53723  53.2131  20.1495 0001276  78.9406 281.1729 15.08837172104960,6917.889,95.438,540.637,538.871,0.0
53723.0,STARLINK-4705,PAYLOAD,2024-07-28 18:46:03,15.08853719,0.0001147,53.2182,17.4765,89.5919,270.5204,5.833e-05,6.41e-06,0.0,0 STARLINK-4705,1 53723U 22107Z   24210.78198226  .00000641  00000-0  58330-4 0  9998,2 53723  53.2182  17.4765 0001147  89.5919 270.5204 15.08853719105055,6917.838,95.437,540.497,538.91,0.0
53723.0,STARLINK-4705,PAYLOAD,2024-07-29 10:39:55,15.08835526,0.0001266,53.2191,14.5057,72.9722,287.1409,0.00020897,3.039e-05,0.0,0 STARLINK-4705,1 53723U 22107Z   24211.44439192  .00003039  00000-0  20897-3 0  9992,2 53723  53.2191  14.5057 0001266  72.9722 287.1409 15.08835526105155,6917.894,95.438,540.635,538.883,0.0
53723.0,STARLINK-4705,PAYLOAD,2024-07-29 18:36:50,15.08842674,0.0001226,53.2173,13.0168,84.5043,275.6089,0.00013079,1.794e-05,0.0,0 STARLINK-4705,1 53723U 22107Z   24211.77558943  .00001794  00000-0  13079-3 0  9994,2 53723  53.2173  13.0168 0001226  84.5043 275.6089 15.08842674105803,6917.872,95.437,540.585,538.889,0.0
